COSMOS 2361 [-]         
1 25590U 98076A   22339.84246632  .00000039  00000+0  25257-4 0  9991
2 25590  82.9352  79.4746 0032840  92.2674  26.9078 13.73036032199757
COSMOS 2378 [-]         
1 26818U 01023A   22336.62309390  .00000044  00000+0  30840-4 0  9995
2 26818  82.9271  99.5909 0033887 330.2008 330.2008 13.73979757 77404
COSMOS 2389 [-]         
1 27436U 02026A   22340.44963836  .00000051  00000+0  38106-4 0  9993
2 27436  82.9528  42.7280 0045081 255.2915 115.5074 13.74988743 30064
COSMOS 2398 [-]         
1 27818U 03023A   22340.35237698  .00000074  00000+0  64835-4 0  9998
2 27818  82.9489   4.9545 0030042 295.5989  74.7070 13.72224272976954
COSMOS 2407 [+]         
1 28380U 04028A   22336.71882399  .00000073  00000+0  59628-4 0  9991
2 28380  82.9587 311.8460 0033780 266.9753 267.5318 13.76128237922290
COSMOS 2414 [+]         
1 28521U 05002A   22339.85870171  .00000028  00000+0  99041-5 0  9998
2 28521  82.9482 298.6347 0041395  46.7811 313.6796 13.87674224905015
COSMOS 2429 [-]         
1 32052U 07038A   22339.81933891  .00000045  00000+0  31057-4 0  9999
2 32052  82.9818  76.0549 0037436 234.5227 125.2433 13.74977077764457
COSMOS 2454 [-]         
1 35635U 09039A   22339.81290970  .00000052  00000+0  29605-4 0  9990
2 35635  82.9554 284.6946 0019159 352.6525  69.3471 13.89703228678306
COSMOS 2463 [+]         
1 36519U 10017A   22340.38854249  .00000040  00000+0  26640-4 0  9992
2 36519  82.9593 116.5334 0037423 105.5992 313.3716 13.71486703631357
